CCSDS_OMM_VERS = 2.0
CREATION_DATE  = 
ORIGINATOR     = 

OBJECT_NAME    = SILVERSAT
OBJECT_ID      = 1998-067XV
CENTER_NAME    = EARTH
REF_FRAME      = TEME
TIME_SYSTEM    = UTC
MEAN_ELEMENT_THEORY = SGP/SGP4

EPOCH          = 2026-02-10T10:07:58.028160
MEAN_MOTION    = 15.63499610
ECCENTRICITY   = .00023805
INCLINATION    = 51.6263
RA_OF_ASC_NODE = 203.5767
ARG_OF_PERICENTER = 260.7067
MEAN_ANOMALY   = 99.3658

EPHEMERIS_TYPE = 0
CLASSIFICATION_TYPE = U
NORAD_CAT_ID   = 66909
ELEMENT_SET_NO = 999
REV_AT_EPOCH   = 1091
BSTAR          = .12816408E-2
MEAN_MOTION_DOT = .122301E-2
MEAN_MOTION_DDOT = 0

CCSDS_OMM_VERS = 2.0
CREATION_DATE  = 
ORIGINATOR     = 

OBJECT_NAME    = ISS OBJECT XW
OBJECT_ID      = 1998-067XW
CENTER_NAME    = EARTH
REF_FRAME      = TEME
TIME_SYSTEM    = UTC
MEAN_ELEMENT_THEORY = SGP/SGP4

EPOCH          = 2026-02-09T16:06:53.258400
MEAN_MOTION    = 15.61822223
ECCENTRICITY   = .00011904
INCLINATION    = 51.6257
RA_OF_ASC_NODE = 207.5584
ARG_OF_PERICENTER = 285.1610
MEAN_ANOMALY   = 74.9252

EPHEMERIS_TYPE = 0
CLASSIFICATION_TYPE = U
NORAD_CAT_ID   = 66910
ELEMENT_SET_NO = 999
REV_AT_EPOCH   = 1079
BSTAR          = .11031161E-2
MEAN_MOTION_DOT = .98201E-3
MEAN_MOTION_DDOT = 0

CCSDS_OMM_VERS = 2.0
CREATION_DATE  = 
ORIGINATOR     = 

OBJECT_NAME    = ISS OBJECT XX
OBJECT_ID      = 1998-067XX
CENTER_NAME    = EARTH
REF_FRAME      = TEME
TIME_SYSTEM    = UTC
MEAN_ELEMENT_THEORY = SGP/SGP4

EPOCH          = 2026-02-09T18:03:21.045024
MEAN_MOTION    = 15.64618808
ECCENTRICITY   = .00028011
INCLINATION    = 51.6234
RA_OF_ASC_NODE = 206.6102
ARG_OF_PERICENTER = 282.1139
MEAN_ANOMALY   = 77.9542

EPHEMERIS_TYPE = 0
CLASSIFICATION_TYPE = U
NORAD_CAT_ID   = 66911
ELEMENT_SET_NO = 999
REV_AT_EPOCH   = 1080
BSTAR          = .14448482E-2
MEAN_MOTION_DOT = .144596E-2
MEAN_MOTION_DDOT = 0

CCSDS_OMM_VERS = 2.0
CREATION_DATE  = 
ORIGINATOR     = 

OBJECT_NAME    = ISS OBJECT XY
OBJECT_ID      = 1998-067XY
CENTER_NAME    = EARTH
REF_FRAME      = TEME
TIME_SYSTEM    = UTC
MEAN_ELEMENT_THEORY = SGP/SGP4

EPOCH          = 2026-02-10T10:35:06.990432
MEAN_MOTION    = 15.59018449
ECCENTRICITY   = .00003736
INCLINATION    = 51.6287
RA_OF_ASC_NODE = 204.4559
ARG_OF_PERICENTER = 197.8529
MEAN_ANOMALY   = 162.2451

EPHEMERIS_TYPE = 0
CLASSIFICATION_TYPE = U
NORAD_CAT_ID   = 66912
ELEMENT_SET_NO = 999
REV_AT_EPOCH   = 1089
BSTAR          = .90482981E-3
MEAN_MOTION_DOT = .71984E-3
MEAN_MOTION_DDOT = 0

CCSDS_OMM_VERS = 2.0
CREATION_DATE  = 
ORIGINATOR     = 

OBJECT_NAME    = ISS OBJECT XZ
OBJECT_ID      = 1998-067XZ
CENTER_NAME    = EARTH
REF_FRAME      = TEME
TIME_SYSTEM    = UTC
MEAN_ELEMENT_THEORY = SGP/SGP4

EPOCH          = 2026-02-10T14:18:50.040000
MEAN_MOTION    = 15.49625607
ECCENTRICITY   = .00108781
INCLINATION    = 51.6304
RA_OF_ASC_NODE = 206.2386
ARG_OF_PERICENTER = 99.3874
MEAN_ANOMALY   = 260.8345

EPHEMERIS_TYPE = 0
CLASSIFICATION_TYPE = U
NORAD_CAT_ID   = 67683
ELEMENT_SET_NO = 999
REV_AT_EPOCH   = 58
BSTAR          = .67758444E-3
MEAN_MOTION_DOT = .3797E-3
MEAN_MOTION_DDOT = 0

CCSDS_OMM_VERS = 2.0
CREATION_DATE  = 
ORIGINATOR     = 

OBJECT_NAME    = GXIBA-1
OBJECT_ID      = 1998-067YA
CENTER_NAME    = EARTH
REF_FRAME      = TEME
TIME_SYSTEM    = UTC
MEAN_ELEMENT_THEORY = SGP/SGP4

EPOCH          = 2026-02-10T14:16:29.907840
MEAN_MOTION    = 15.50204373
ECCENTRICITY   = .00127272
INCLINATION    = 51.6305
RA_OF_ASC_NODE = 206.2290
ARG_OF_PERICENTER = 94.0869
MEAN_ANOMALY   = 266.1575

EPHEMERIS_TYPE = 0
CLASSIFICATION_TYPE = U
NORAD_CAT_ID   = 67684
ELEMENT_SET_NO = 999
REV_AT_EPOCH   = 58
BSTAR          = .12012594E-2
MEAN_MOTION_DOT = .69413E-3
MEAN_MOTION_DDOT = 0

CCSDS_OMM_VERS = 2.0
CREATION_DATE  = 
ORIGINATOR     = 

OBJECT_NAME    = CORAL
OBJECT_ID      = 1998-067YB
CENTER_NAME    = EARTH
REF_FRAME      = TEME
TIME_SYSTEM    = UTC
MEAN_ELEMENT_THEORY = SGP/SGP4

EPOCH          = 2026-02-10T14:18:19.114848
MEAN_MOTION    = 15.49740764
ECCENTRICITY   = .00127927
INCLINATION    = 51.6305
RA_OF_ASC_NODE = 206.2367
ARG_OF_PERICENTER = 94.6356
MEAN_ANOMALY   = 265.6094

EPHEMERIS_TYPE = 0
CLASSIFICATION_TYPE = U
NORAD_CAT_ID   = 67685
ELEMENT_SET_NO = 999
REV_AT_EPOCH   = 58
BSTAR          = .75298032E-3
MEAN_MOTION_DOT = .42481E-3
MEAN_MOTION_DDOT = 0

CCSDS_OMM_VERS = 2.0
CREATION_DATE  = 
ORIGINATOR     = 

OBJECT_NAME    = ISS OBJECT YC
OBJECT_ID      = 1998-067YC
CENTER_NAME    = EARTH
REF_FRAME      = TEME
TIME_SYSTEM    = UTC
MEAN_ELEMENT_THEORY = SGP/SGP4

EPOCH          = 2026-02-10T14:17:57.704928
MEAN_MOTION    = 15.49849773
ECCENTRICITY   = .00077517
INCLINATION    = 51.6309
RA_OF_ASC_NODE = 206.2355
ARG_OF_PERICENTER = 71.5738
MEAN_ANOMALY   = 288.6093

EPHEMERIS_TYPE = 0
CLASSIFICATION_TYPE = U
NORAD_CAT_ID   = 67686
ELEMENT_SET_NO = 999
REV_AT_EPOCH   = 58
BSTAR          = .90424331E-3
MEAN_MOTION_DOT = .51261E-3
MEAN_MOTION_DDOT = 0

CCSDS_OMM_VERS = 2.0
CREATION_DATE  = 
ORIGINATOR     = 

OBJECT_NAME    = LEOPARD
OBJECT_ID      = 1998-067YD
CENTER_NAME    = EARTH
REF_FRAME      = TEME
TIME_SYSTEM    = UTC
MEAN_ELEMENT_THEORY = SGP/SGP4

EPOCH          = 2026-02-10T14:18:31.805280
MEAN_MOTION    = 15.49693548
ECCENTRICITY   = .00078523
INCLINATION    = 51.6309
RA_OF_ASC_NODE = 206.2375
ARG_OF_PERICENTER = 73.1400
MEAN_ANOMALY   = 287.0449

EPHEMERIS_TYPE = 0
CLASSIFICATION_TYPE = U
NORAD_CAT_ID   = 67687
ELEMENT_SET_NO = 999
REV_AT_EPOCH   = 50
BSTAR          = .71846719E-3
MEAN_MOTION_DOT = .40355E-3
MEAN_MOTION_DDOT = 0

CCSDS_OMM_VERS = 2.0
CREATION_DATE  = 
ORIGINATOR     = 

OBJECT_NAME    = ISS OBJECT YE
OBJECT_ID      = 1998-067YE
CENTER_NAME    = EARTH
REF_FRAME      = TEME
TIME_SYSTEM    = UTC
MEAN_ELEMENT_THEORY = SGP/SGP4

EPOCH          = 2026-02-10T12:45:11.975040
MEAN_MOTION    = 15.49802515
ECCENTRICITY   = .0007705
INCLINATION    = 51.6310
RA_OF_ASC_NODE = 206.5553
ARG_OF_PERICENTER = 71.6104
MEAN_ANOMALY   = 288.5722

EPHEMERIS_TYPE = 0
CLASSIFICATION_TYPE = U
NORAD_CAT_ID   = 67688
ELEMENT_SET_NO = 999
REV_AT_EPOCH   = 49
BSTAR          = .82575632E-3
MEAN_MOTION_DOT = .46665E-3
MEAN_MOTION_DDOT = 0

